P/2016 P5 (COIAS),e,7.0388,185.3644,33.6837,4.699435,0.0967466,0.05744486,93.6887,01/13.0/2026,2000,g 13.2,4.0
# From MPEC 2024-H50
C/2016 Q2 (PANSTARRS),h,05/11.0713/2021,109.3124,322.3533,84.5160,1.001778,7.080060,2000,6.0,4.0
# From MPEC 2023-J95
C/2016 Q4 (Kowalski),e,7.2364,271.2778,100.0290,17.04917,0.0140007,0.58204347,40.6547,01/13.0/2026,2000,g  7.0,4.0
# From MPEC 2021-N06
C/2016 R2 (PANSTARRS),e,58.3808,80.4714,33.1768,576.0205,0.0000713,0.99549561,0.0000,05/11.9802/2018,2000,g  7.0,4.0
# From MPEC 2022-K19
P/2016 R4 (Gibbs),e,10.8609,168.2562,174.0695,5.339566,0.0798813,0.47448913,276.7938,01/13.0/2026,2000,g 12.5,4.0
# From MPEC 2021-P47
C/2016 X1 (Lemmon),e,26.4666,256.3071,224.6570,3505,0.0000048,0.99784141,0.0000,05/01.6239/2019,2000,g  6.0,4.0
# From MPC114598
C/2017 AB5 (PANSTARRS),h,02/19.7466/2018,32.4429,42.6221,78.3957,1.000399,9.211650,2000,5.5,4.0
# From MPEC 2022-OB6
C/2017 B3 (LINEAR),e,54.2473,2.2777,284.7134,2762,0.0000068,0.99857673,0.0000,01/29.8044/2019,2000,g  6.0,4.0
# From MPC103847
P/2017 B4 (PANSTARRS),e,20.0584,121.4578,11.0197,4.410520,0.1064068,0.36495152,359.9130,01/05.0/2017,2000,g 14.5,4.0
# From MPEC 2022-OB6
P/2017 D1 (Fuls),e,20.7715,82.1856,8.1319,4.820302,0.0931307,0.43778546,324.3236,01/13.0/2026,2000,g 14.0,4.0
# From MPEC 2022-O08
C/2017 E3 (PANSTARRS),h,06/06.7538/2017,70.6669,220.7643,334.1516,1.004248,5.900940,2000,6.5,4.0
# From MPC114598
C/2017 F2 (PANSTARRS),h,11/26.5229/2017,42.5403,38.6183,134.7839,1.001852,6.900030,2000,7.5,4.0
# From MPC184408
P/2017 FL36 (PANSTARRS),e,15.6876,313.4430,90.5415,2.928076,0.1967119,0.03313705,30.6488,01/13.0/2026,2000,g 14.7,4.0
# From MPC115882
C/2017 K1 (PANSTARRS),e,154.0257,225.6506,4.1493,15136,0.0000005,0.99952009,0.0000,03/12.6387/2018,2000,g  7.0,4.0
# From MPEC 2026-A90
C/2017 K2 (PANSTARRS),e,87.6390,88.2216,236.1537,1260,0.0000220,0.99857171,0.0000,12/18.1069/2022,2000,g  1.5,4.0
# From MPEC 2021-P47
C/2017 K5 (PANSTARRS),h,03/24.8443/2020,82.2800,102.4608,171.8868,1.002458,7.672708,2000,5.0,4.0
# From MPEC 2022-OB6
C/2017 M4 (ATLAS),e,105.6370,65.9914,167.3608,51781,0.0000001,0.99993757,0.0000,01/17.4309/2019,2000,g  6.0,4.0
# From MPC118841
C/2017 M5 (TOTAS),h,05/30.8631/2018,15.8699,216.3091,92.7866,1.002079,6.009342,2000,6.5,4.0
# From MPC114599
P/2017 P1 (PANSTARRS),e,7.6880,221.4703,122.7010,7.919813,0.0442213,0.30857459,122.3953,01/13.0/2026,2000,g 10.0,4.0
# From MPEC 2020-SI8
C/2017 S7 (Lemmon),e,124.2296,262.6506,187.7483,57156,0.0000001,0.99986631,0.0000,05/25.5509/2017,2000,g  7.0,4.0
# From MPEC 2022-OB6
P/2017 S8 (PANSTARRS),e,29.8416,191.4951,254.9489,2.778383,0.2128216,0.39114814,258.5772,01/13.0/2026,2000,g 16.0,4.0
# From MPEC 2024-A43
C/2017 T2 (PANSTARRS),e,57.2687,64.4094,92.7740,1698,0.0000141,0.99905688,0.0000,05/06.5339/2020,2000,g  5.0,4.0
# From MPC115882
P/2017 TW13 (Lemmon),e,44.8911,322.0912,120.0586,7.139002,0.0516711,0.71047670,142.6168,01/13.0/2026,2000,g 15.0,2.0
# From MPEC 2022-K19
P/2017 U3 (PANSTARRS),e,15.9254,165.0483,296.5945,4.918633,0.0903519,0.10093670,222.3070,01/13.0/2026,2000,g 11.0,4.0
# From MPEC 2023-CD7
C/2017 U4 (PANSTARRS),e,158.2031,245.9288,159.2281,11280,0.0000008,0.99931267,0.0000,09/22.3840/2018,2000,g  7.0,4.0
# From MPEC 2023-A50
C/2017 U7 (PANSTARRS),h,09/16.1425/2019,142.6397,276.3214,326.3713,1.002552,6.413880,2000,8.3,2.0
# From MPC114601
P/2017 W3 (Gibbs),e,18.1960,210.0334,327.7883,7.816688,0.0450993,0.50736979,129.7287,01/13.0/2026,2000,g 10.5,4.0
# From MPEC 2024-JU4
C/2018 A6 (Gibbs),e,77.1869,340.4843,264.2379,14.99183,0.0169794,0.79892438,40.3856,01/13.0/2026,2000,g  9.0,4.0
# From MPC114602
P/2018 H2 (PANSTARRS),e,7.4112,67.9863,119.0470,4.415536,0.1062255,0.53976214,314.4207,01/13.0/2026,2000,g 16.6,2.0
# From MPEC 2021-R75
C/2018 KJ3 (Lemmon),e,136.6213,91.6949,217.5055,645.3969,0.0000601,0.99439627,0.0000,09/08.0130/2019,2000,g 12.2,2.0
# From MPEC 2022-YN2
C/2018 N2 (ASASSN),h,11/12.0653/2019,77.4587,24.5473,25.3390,1.002093,3.137180,2000,6.0,4.0
# From MPC114603
P/2018 P4 (PANSTARRS),e,23.0689,353.1618,8.5103,6.697461,0.0568642,0.44859226,149.3022,01/13.0/2026,2000,g 12.0,4.0
# From MPEC 2022-QC6
C/2018 S2 (TESS),e,64.1130,85.1109,290.9807,14.36838,0.0180964,0.61745484,47.5326,01/13.0/2026,2000,g  7.5,4.0
# From MPEC 2023-D54
C/2018 S3 (TESS),e,78.3886,25.0493,263.9008,26954,0.0000002,0.99970254,0.0000,06/24.2307/2016,2000,g  6.0,4.0
# From MPC184408
C/2018 U1 (Lemmon),e,108.3266,75.5063,180.3074,14065,0.0000006,0.99964570,0.0000,11/01.7530/2021,2000,g  5.0,4.0
# From MPC181178
P/2018 VN2 (Leonard),e,18.2553,226.4323,138.9295,4.060640,0.1204515,0.47803027,334.1303,01/13.0/2026,2000,g 15.0,4.0
# From MPEC 2023-M14
A/2018 W3,e,104.8327,251.6775,313.8205,685.1800,0.0000550,0.99375588,0.0000,04/13.1972/2021,2000,g 10.5,2.0
# From MPC114605
P/2018 Y2 (Africano),e,11.6971,297.1086,162.4393,7.459605,0.0483760,0.47994236,124.0756,01/13.0/2026,2000,g 11.5,4.0
# From MPEC 2021-P47
P/2019 A2 (ATLAS),e,14.8770,139.3569,324.0003,5.710232,0.0722310,0.38333399,188.2076,01/13.0/2026,2000,g 10.5,4.0
# From MPEC 2022-M21
P/2019 A3 (PANSTARRS),e,15.3566,31.1799,325.5586,3.143329,0.1768558,0.26820176,120.5021,01/13.0/2026,2000,g 16.0,4.0
# From MPEC 2022-L66
P/2019 A4 (PANSTARRS),e,13.3064,119.3541,343.3376,2.614111,0.2331944,0.08750523,243.5958,01/13.0/2026,2000,g 15.0,4.0
# From MPEC 2021-P47
C/2019 A5 (PANSTARRS),e,67.5549,146.4912,355.8775,21.52790,0.0098674,0.70663807,23.7948,01/13.0/2026,2000,g  9.5,4.0
# From MPC115885
P/2019 B2 (Groeller),e,16.9467,175.5953,0.4833,3.932817,0.1263713,0.35771823,308.5857,01/13.0/2026,2000,g 14.5,4.0
# From MPEC 2024-JU4
C/2019 B3 (PANSTARRS),e,66.6252,358.3976,263.9989,3170,0.0000055,0.99784528,0.0000,01/19.3202/2021,2000,g  5.5,4.0
# From MPEC 2026-A90
C/2019 E3 (ATLAS),e,84.3246,347.1831,280.7244,6326,0.0000020,0.99836969,0.0000,11/15.7759/2023,2000,g  2.5,4.0
# From MPEC 2024-GJ3
C/2019 F1 (ATLAS-Africano),e,54.2740,38.6667,251.2740,51387,0.0000001,0.99992980,0.0000,06/20.7972/2021,2000,g  5.5,4.0
# From MPC114607
P/2019 GG21 (PANSTARRS),e,6.0807,340.5659,208.5881,7.468488,0.0482898,0.47170503,117.8374,01/13.0/2026,2000,g 12.0,4.0
# From MPEC 2024-GJ3
C/2019 K7 (Smith),e,103.4650,308.0477,27.3226,62997,0.0000001,0.99992901,0.0000,06/16.6888/2020,2000,g  6.0,4.0
# From MPEC 2025-W75
P/2019 LD2 (ATLAS),e,11.6670,178.0644,116.0958,5.153617,0.0842434,0.13427673,183.7170,01/13.0/2026,2000,g 12.0,4.0
# From MPC185656
C/2019 L3 (ATLAS),h,01/10.2141/2022,48.3470,290.7099,171.7951,1.003404,3.561349,2000,4.5,4.0
# From MPEC 2025-W75
P/2019 LM4 (Palomar),e,36.4122,72.8749,68.2259,5.701184,0.0724030,0.58643198,173.6205,01/13.0/2026,2000,g 12.9,4.0
# From MPEC 2023-JA2
C/2019 M4 (TESS),e,65.7048,52.6360,260.3227,28723,0.0000002,0.99968004,0.0000,09/08.6887/2019,2000,g  5.0,4.0
# From MPEC 2023-C45
C/2019 N1 (ATLAS),e,82.5794,13.4884,193.3399,942.7457,0.0000340,0.99819378,0.0000,11/30.4274/2020,2000,g  7.5,4.0
# From MPEC 2023-CD8
A/2019 N2,e,89.3205,276.2248,347.0247,1040,0.0000294,0.99813757,0.0000,08/22.3152/2019,2000,g 12.5,2.0
# From MPEC 2025-W75
C/2019 NJ3 (Lemmon),h,10/22.0381/2020,99.3123,142.4922,246.8777,1.001747,4.362158,2000,12.0,4.0
# From MPC185656
C/2019 O2 (PANSTARRS),e,93.2877,48.2655,129.5645,58.83516,0.0021840,0.83546901,2.2125,01/13.0/2026,2000,g  5.0,4.0
# From MPC182878
C/2019 O3 (Palomar),h,03/07.6354/2021,89.7912,300.4827,60.0800,1.001913,8.820234,2000,3.5,4.0
# From MPEC 2024-EF7
C/2019 Q1 (Lemmon),h,07/22.4900/2020,155.7123,42.4742,56.2415,1.002517,4.999939,2000,8.5,4.0
# From MPC117072
C/2019 Q3 (PANSTARRS),h,08/19.1238/2018,65.5878,151.4602,152.6754,1.000727,7.264099,2000,8.5,4.0
# From MPC117072
P/2019 S2 (PANSTARRS),e,10.4636,93.1794,216.8617,4.748177,0.0952607,0.20470418,240.4792,01/13.0/2026,2000,g 13.5,4.0
# From MPEC 2022-CN4
P/2019 S3 (PANSTARRS),e,8.6945,150.1401,213.1024,3.413533,0.1562780,0.47061605,3.8783,01/13.0/2026,2000,g 18.3,4.0
# From MPEC 2023-N01
A/2019 T1,e,120.7997,6.9195,90.9515,38.68058,0.0040970,0.88952530,7.4740,01/13.0/2026,2000,g 13.0,2.0
# From MPEC 2023-R20
C/2019 T2 (Lemmon),e,111.3440,155.6515,239.3684,2749,0.0000068,0.99903867,0.0000,04/22.2664/2021,2000,g  9.0,4.0
# From MPEC 2023-UR6
C/2019 T3 (ATLAS),e,121.8865,139.5498,112.4924,5800,0.0000022,0.99897367,0.0000,03/05.0048/2021,2000,g  6.8,4.0
# From MPC188408
C/2019 T4 (ATLAS),e,53.6246,199.8801,351.1137,894.0411,0.0000369,0.99526123,0.0000,06/08.7454/2022,2000,g  5.0,4.0
# From MPC118096
P/2019 U4 (PANSTARRS),e,11.6957,199.9947,181.0980,3.517990,0.1493696,0.47562725,344.2332,01/13.0/2026,2000,g 19.0,4.0
# From MPEC 2026-A90
C/2019 U5 (PANSTARRS),e,113.5147,2.5975,181.4458,101598,0.0000000,0.99996432,0.0000,03/29.3081/2023,2000,g  4.5,4.0
# From MPEC 2022-L66
P/2019 V2 (Groeller),e,11.8076,189.1175,335.6596,7.495234,0.0480315,0.33210755,91.8909,01/13.0/2026,2000,g 10.0,4.0
# From MPEC 2023-A50
P/2019 W1 (PANSTARRS),e,23.4635,35.3502,18.9223,4.548429,0.1016043,0.26707449,247.6573,01/13.0/2026,2000,g 12.9,4.0
# From MPEC 2021-P47
P/2019 X1 (Pruyne),e,10.2429,43.6720,37.0475,6.181132,0.0641360,0.30362075,151.6183,01/13.0/2026,2000,g 10.4,4.0
# From MPEC 2020-C98
P/2019 X2 (Pan-STARRS),e,15.8949,250.8236,213.5495,3.633197,0.1423215,0.50050922,316.4054,01/13.0/2026,2000,g 18.0,4.0
# From MPEC 2023-A50
C/2020 A3 (ATLAS),e,146.6147,120.7959,268.2195,3476,0.0000048,0.99834462,0.0000,06/26.0342/2019,2000,g  8.0,4.0
# From MPEC 2023-KD6
P/2020 B4 (Sheppard),e,11.6016,185.9334,342.1304,7.976170,0.0437535,0.19316437,66.2609,01/13.0/2026,2000,g 10.5,4.0
# From MPEC 2025-X35
C/2020 F2 (ATLAS),h,07/12.0385/2022,163.5900,250.2953,48.2240,1.001723,8.813909,2000,4.5,4.0
# From MPEC 2024-UQ8
C/2020 F5 (MASTER),e,52.2423,350.5630,310.5755,162.2859,0.0004767,0.97335215,0.0000,03/15.8907/2021,2000,g  6.5,3.2
# From MPEC 2024-A43
C/2020 F7 (Lemmon),e,93.9932,321.8131,228.0060,590.2581,0.0000687,0.99095941,0.0000,11/14.1309/2021,2000,g  7.0,4.0
# From MPC184409
